STARLINK-36551          
1 67493U 26012A   26040.91670139 -.01922966  00000+0 -30486-1 0  9996
2 67493  42.9998 112.4654 0001105 270.1775 331.7443 15.56056843  4609
STARLINK-36396          
1 67494U 26012B   26040.91670139  .00020696  00000+0  35811-3 0  9992
2 67494  43.0009 113.2466 0001044 342.3707 302.9097 15.50543950  4603
STARLINK-36550          
1 67495U 26012C   26040.91670139  .00033534  00000+0  57544-3 0  9995
2 67495  43.0000 112.7409 0001149 257.9789 231.9023 15.50556469  4602
STARLINK-36534          
1 67496U 26012D   26040.91670139 -.01930563  00000+0 -31640-1 0  9994
2 67496  42.9995 112.4761 0001177 267.5201 329.7177 15.55182217  4549
STARLINK-36555          
1 67497U 26012E   26040.91670139 -.01925798  00000+0 -31659-1 0  9999
2 67497  42.9995 112.4929 0001137 271.7323 318.8975 15.55091212  4600
STARLINK-36081          
1 67498U 26012F   26040.91670139 -.00099464  00000+0 -17091-2 0  9996
2 67498  42.9998 112.7355 0001288 275.6250 215.8695 15.50614404  4546
STARLINK-36558          
1 67499U 26012G   26040.91670139  .00020649  00000+0  35717-3 0  9990
2 67499  43.0000 112.7298 0001980 267.3480 226.5472 15.50554939  4606
STARLINK-36557          
1 67500U 26012H   26040.91670139 -.01928117  00000+0 -27909-1 0  9995
2 67500  43.0003 112.2654 0001391 271.9810  49.9846 15.58465361  4607
STARLINK-36433          
1 67501U 26012J   26040.91670139 -.01918944  00000+0 -27381-1 0  9997
2 67501  42.9999 112.2366 0001289 270.0059  63.4674 15.58823663  4604
STARLINK-36554          
1 67502U 26012K   26040.91670139 -.01958599  00000+0 -32821-1 0  9993
2 67502  42.9996 112.4859 0001010 270.5539 322.3846 15.54082194  4544
STARLINK-36552          
1 67503U 26012L   26040.91670139 -.01920540  00000+0 -26351-1 0  9990
2 67503  43.0001 112.1642 0001539 274.1107  88.1114 15.59842088  4601
STARLINK-36512          
1 67504U 26012M   26040.91670139 -.01920189  00000+0 -28451-1 0  9993
2 67504  42.9998 112.2508 0001331 268.0293  59.5067 15.57838952  4607
